[{"OBJECT_NAME":"STARLINK-2590","OBJECT_ID":"2021-038AW","EPOCH":"2026-03-09T23:13:09.400224","MEAN_MOTION":15.30175723,"ECCENTRICITY":0.00012287,"INCLINATION":53.1606,"RA_OF_ASC_NODE":331.3508,"ARG_OF_PERICENTER":67.7668,"MEAN_ANOMALY":292.3463,"EPHEMERIS_TYPE":0,"CLASSIFICATION_TYPE":"U","NORAD_CAT_ID":48397,"ELEMENT_SET_NO":999,"REV_AT_EPOCH":26870,"BSTAR":-6.4755149e-5,"MEAN_MOTION_DOT":-2.275e-5,"MEAN_MOTION_DDOT":0},{"OBJECT_NAME":"CERISE","OBJECT_ID":"1995-033B","EPOCH":"2026-03-09T23:11:27.589056","MEAN_MOTION":15.32047731,"ECCENTRICITY":0.00057118,"INCLINATION":98.325,"RA_OF_ASC_NODE":273.5192,"ARG_OF_PERICENTER":211.8754,"MEAN_ANOMALY":148.214,"EPHEMERIS_TYPE":0,"CLASSIFICATION_TYPE":"U","NORAD_CAT_ID":23606,"ELEMENT_SET_NO":999,"REV_AT_EPOCH":66468,"BSTAR":0.00062940675,"MEAN_MOTION_DOT":0.00019422,"MEAN_MOTION_DDOT":0}]
